OBJECT_NAME,OBJECT_ID,EPOCH,MEAN_MOTION,ECCENTRICITY,INCLINATION,RA_OF_ASC_NODE,ARG_OF_PERICENTER,MEAN_ANOMALY,EPHEMERIS_TYPE,CLASSIFICATION_TYPE,NORAD_CAT_ID,ELEMENT_SET_NO,REV_AT_EPOCH,BSTAR,MEAN_MOTION_DOT,MEAN_MOTION_DDOT
QPS-SAR-8 (AMATERU-IV),2024-149CC,2026-06-30T05:34:13.992096,15.04261926,.00041872,97.6671,260.2720,78.0917,282.0779,0,U,60542,999,10223,.40476185E-3,.5572E-4,0
ARCTIC WEATHER SATELLITE,2024-149CD,2026-06-30T04:24:29.145024,14.89802704,.00035998,97.6799,251.2776,79.5499,280.6125,0,U,60543,999,10123,.87977099E-4,.791E-5,0
CAPELLA-15 (ACADIA-5),2024-149CE,2026-06-30T12:44:31.627968,14.92403565,.00039674,97.6773,254.1006,36.3193,323.8295,0,U,60544,999,10184,.38867409E-3,.3926E-4,0
HAWK-10B,2024-149CF,2026-06-30T13:00:29.747808,14.96550298,.00062391,97.6809,256.5655,58.3826,301.8004,0,U,60545,999,10198,.15399402E-3,.1695E-4,0
ICEYE-X39,2024-149CG,2026-06-30T05:15:30.509568,14.99973762,.00065364,97.6769,258.0652,85.5728,274.6242,0,U,60546,999,10207,.28743754E-3,.3514E-4,0
UMBRA-10,2024-149CH,2026-06-30T07:32:58.809120,15.18428074,.00006385,97.6987,268.7760,177.4797,182.6440,0,U,60547,999,10272,.71121952E-3,.14587E-3,0
ICEYE-X33,2024-149CJ,2026-06-30T04:03:59.641920,15.00873288,.00020684,97.7340,260.2362,102.9484,257.1971,0,U,60548,999,10215,.34850181E-3,.4374E-4,0
ICEYE-X40,2024-149CK,2026-06-30T04:40:28.299072,14.97978540,.00053624,97.6806,257.4822,43.0096,317.1545,0,U,60549,999,10202,.12061017E-3,.1365E-4,0
SATELIOT_1,2024-149CL,2026-06-30T10:50:48.716736,14.98120138,.00075272,97.6750,257.1308,38.2202,321.9553,0,U,60550,999,10205,.11232097E-3,.1273E-4,0
BRO-14,2024-149CM,2026-06-30T10:29:30.357888,14.96210375,.00081144,97.6876,256.9769,61.1508,299.0527,0,U,60551,999,10197,.13119168E-3,.1423E-4,0
SATELIOT_3,2024-149CN,2026-06-30T03:51:26.941536,14.98108029,.00062023,97.6824,257.6452,57.2239,302.9580,0,U,60552,999,10202,.2392685E-3,.2776E-4,0
BRO-15,2024-149CP,2026-06-30T03:39:14.194368,14.96193006,.00090159,97.6798,256.2863,53.4866,306.7184,0,U,60553,999,10194,.26591467E-3,.2942E-4,0
UM5-RIBAT,2024-149CQ,2026-06-29T19:17:52.735776,15.01144070,.00025092,97.6627,258.4339,41.3823,318.7591,0,U,60554,999,10208,.25593934E-3,.322E-4,0
UM5-EOSAT,2024-149CR,2026-06-30T03:59:31.587648,15.01631059,.00091507,97.6754,259.7525,76.5477,283.6766,0,U,60555,999,10216,.2973073E-3,.3801E-4,0
LASARSAT,2024-247Q,2026-06-30T11:22:48.461664,15.47133217,.00067092,44.9721,187.5081,55.5360,304.6163,0,U,62391,999,8537,.62049819E-3,.31981E-3,0
CROCUBE,2024-247T,2026-06-30T10:55:41.519424,15.49133067,.00065888,44.9690,184.7243,61.2381,298.9172,0,U,62394,999,8540,.62612125E-3,.34641E-3,0
TEVEL2-4,2025-052D,2026-06-29T23:03:25.420896,15.35054118,.00047321,97.3893,77.3762,79.7406,280.4371,0,U,63213,999,7207,.57064181E-3,.19361E-3,0
TEVEL2-5,2025-052E,2026-06-30T05:50:33.814752,15.34882414,.00047019,97.3890,77.6036,80.7172,279.4603,0,U,63214,999,7211,.49541717E-3,.16701E-3,0
TEVEL2-6,2025-052F,2026-06-30T12:24:16.273728,15.34857280,.00045046,97.3897,77.8619,81.0945,279.0808,0,U,63215,999,7215,.54121331E-3,.1824E-3,0
TEVEL2-1,2025-052H,2026-06-29T23:07:36.552864,15.34288206,.00049749,97.3866,76.9168,89.0963,271.0850,0,U,63217,999,7205,.5556305E-3,.18395E-3,0
TEVEL2-3,2025-052J,2026-06-29T22:59:12.512544,15.34347673,.00048285,97.3871,76.9346,90.2105,269.9691,0,U,63218,999,7205,.55721892E-3,.18482E-3,0
TEVEL2-2,2025-052K,2026-06-28T15:49:37.369056,15.34253315,.00050154,97.3871,75.6148,92.1173,268.0645,0,U,63219,999,7185,.51245467E-3,.16937E-3,0
TEVEL2-9,2025-052AD,2026-06-30T05:15:32.433696,15.32290550,.00083087,97.3929,76.5220,96.6090,263.6098,0,U,63237,999,7202,.47181125E-3,.14659E-3,0
TEVEL2-7,2025-052AE,2026-06-30T06:18:06.692544,15.31985116,.00083715,97.3932,76.4758,96.4630,263.7565,0,U,63238,999,7202,.4669777E-3,.14369E-3,0
TEVEL2-8,2025-052AF,2026-06-30T04:56:07.226880,15.31968777,.00084407,97.3932,76.3954,97.2611,262.9590,0,U,63239,999,7201,.46472165E-3,.14292E-3,0
FORESAIL-1 PRIME,2025-276DS,2026-06-30T10:29:33.076032,15.18816213,.00037806,97.4202,254.4659,75.9591,284.2063,0,U,66778,999,3241,.2115921E-3,.4337E-4,0
