QPS-SAR-8 (AMATERU-IV)  
1 60542U 24149CC  26181.23210639  .00005572  00000+0  40476-3 0  9993
2 60542  97.6671 260.2720 0004187  78.0917 282.0779 15.04261926102235
ARCTIC WEATHER SATELLITE
1 60543U 24149CD  26181.18367066  .00000791  00000+0  87977-4 0  9991
2 60543  97.6799 251.2776 0003599  79.5499 280.6125 14.89802704101230
CAPELLA-15 (ACADIA-5)   
1 60544U 24149CE  26181.53092162  .00003926  00000+0  38867-3 0  9999
2 60544  97.6773 254.1006 0003967  36.3193 323.8295 14.92403565101843
HAWK-10B                
1 60545U 24149CF  26181.54201097  .00001695  00000+0  15399-3 0  9996
2 60545  97.6809 256.5655 0006239  58.3826 301.8004 14.96550298101981
ICEYE-X39               
1 60546U 24149CG  26181.21910312  .00003514  00000+0  28744-3 0  9998
2 60546  97.6769 258.0652 0006536  85.5728 274.6242 14.99973762102074
UMBRA-10                
1 60547U 24149CH  26181.31456955  .00014587  00000+0  71122-3 0  9998
2 60547  97.6987 268.7760 0000638 177.4797 182.6440 15.18428074102722
ICEYE-X33               
1 60548U 24149CJ  26181.16944030  .00004374  00000+0  34850-3 0  9998
2 60548  97.7340 260.2362 0002068 102.9484 257.1971 15.00873288102153
ICEYE-X40               
1 60549U 24149CK  26181.19477198  .00001365  00000+0  12061-3 0  9995
2 60549  97.6806 257.4822 0005362  43.0096 317.1545 14.97978540102025
SATELIOT_1              
1 60550U 24149CL  26181.45195274  .00001273  00000+0  11232-3 0  9995
2 60550  97.6750 257.1308 0007527  38.2202 321.9553 14.98120138102059
BRO-14                  
1 60551U 24149CM  26181.43715692  .00001423  00000+0  13119-3 0  9999
2 60551  97.6876 256.9769 0008114  61.1508 299.0527 14.96210375101971
SATELIOT_3              
1 60552U 24149CN  26181.16072849  .00002776  00000+0  23927-3 0  9990
2 60552  97.6824 257.6452 0006202  57.2239 302.9580 14.98108029102029
BRO-15                  
1 60553U 24149CP  26181.15224762  .00002942  00000+0  26591-3 0  9998
2 60553  97.6798 256.2863 0009015  53.4866 306.7184 14.96193006101949
UM5-RIBAT               
1 60554U 24149CQ  26180.80408259  .00003220  00000+0  25594-3 0  9997
2 60554  97.6627 258.4339 0002509  41.3823 318.7591 15.01144070102088
UM5-EOSAT               
1 60555U 24149CR  26181.16633782  .00003801  00000+0  29731-3 0  9991
2 60555  97.6754 259.7525 0009150  76.5477 283.6766 15.01631059102166
LASARSAT                
1 62391U 24247Q   26181.47417201  .00031981  00000+0  62050-3 0  9991
2 62391  44.9721 187.5081 0006709  55.5360 304.6163 15.47133217 85376
CROCUBE                 
1 62394U 24247T   26181.45534166  .00034641  00000+0  62612-3 0  9992
2 62394  44.9690 184.7243 0006588  61.2381 298.9172 15.49133067 85409
TEVEL2-4                
1 63213U 25052D   26180.96071089  .00019361  00000+0  57064-3 0  9990
2 63213  97.3893  77.3762 0004732  79.7406 280.4371 15.35054118 72071
TEVEL2-5                
1 63214U 25052E   26181.24344693  .00016701  00000+0  49542-3 0  9994
2 63214  97.3890  77.6036 0004701  80.7172 279.4603 15.34882414 72112
TEVEL2-6                
1 63215U 25052F   26181.51685502  .00018240  00000+0  54121-3 0  9991
2 63215  97.3897  77.8619 0004504  81.0945 279.0808 15.34857280 72152
TEVEL2-1                
1 63217U 25052H   26180.96361751  .00018395  00000+0  55563-3 0  9990
2 63217  97.3866  76.9168 0004974  89.0963 271.0850 15.34288206 72052
TEVEL2-3                
1 63218U 25052J   26180.95778371  .00018482  00000+0  55722-3 0  9994
2 63218  97.3871  76.9346 0004828  90.2105 269.9691 15.34347673 72050
TEVEL2-2                
1 63219U 25052K   26179.65946029  .00016937  00000+0  51245-3 0  9996
2 63219  97.3871  75.6148 0005015  92.1173 268.0645 15.34253315 71857
TEVEL2-9                
1 63237U 25052AD  26181.21912539  .00014659  00000+0  47181-3 0  9993
2 63237  97.3929  76.5220 0008308  96.6090 263.6098 15.32290550 72020
TEVEL2-7                
1 63238U 25052AE  26181.26257746  .00014369  00000+0  46698-3 0  9991
2 63238  97.3932  76.4758 0008371  96.4630 263.7565 15.31985116 72026
TEVEL2-8                
1 63239U 25052AF  26181.20563920  .00014292  00000+0  46472-3 0  9995
2 63239  97.3932  76.3954 0008440  97.2611 262.9590 15.31968777 72011
FORESAIL-1 PRIME        
1 66778U 25276DS  26181.43718838  .00004337  00000+0  21159-3 0  9993
2 66778  97.4202 254.4659 0003780  75.9591 284.2063 15.18816213 32410
